{
"type": "FeatureCollection",
"name": "Jaringan Jalan v2",
"crs": { "type": "name", "properties": { "name": "urn:ogc:def:crs:OGC:1.3:CRS84" } },
"xy_coordinate_resolution": 1e-15,
"features": [
{ "type": "Feature", "properties": { "OBJECTID": 1, "Id": 0, "NAMAOBJ": "", "JENIS": "", "DESA": "", "KECAMATAN": "", "KABUPATEN": "", "PROVINSI": "", "TAHUN": "", "REMARK": "", "Shape_Length": 1654.2390298351643 }, "geometry": { "type": "MultiLineString", "coordinates": [ [ [ 105.230467008533708, -5.546640408433611 ], [ 105.230508754267134, -5.54659124492794 ], [ 105.230667327750922, -5.546473421707666 ], [ 105.231068568599454, -5.546256889903748 ], [ 105.231165068658896, -5.546235788588302 ], [ 105.231610820092953, -5.546219817452324 ], [ 105.231921335699468, -5.546134486042162 ], [ 105.232163576114189, -5.546165985562759 ], [ 105.232421139057237, -5.54628508241066 ], [ 105.232667678214895, -5.546312271236127 ], [ 105.232788087222303, -5.546342382732058 ], [ 105.233106324102025, -5.546452838708849 ], [ 105.233338570630153, -5.546584869696212 ], [ 105.23346315289352, -5.546612995531281 ], [ 105.233632810096537, -5.546416727721852 ], [ 105.23391841815176, -5.546171038836243 ], [ 105.234063594001512, -5.546004870694282 ], [ 105.234181572084864, -5.545926315816134 ], [ 105.234456880184794, -5.545812019631837 ], [ 105.234762822964797, -5.54564435194176 ], [ 105.234997791574813, -5.545408735000591 ], [ 105.235278680855544, -5.545312881821395 ], [ 105.235474045522622, -5.545208446768587 ], [ 105.235566705893916, -5.545140912061426 ], [ 105.235802683366742, -5.544898430016285 ], [ 105.236233709251152, -5.544500023382232 ], [ 105.236427568169702, -5.544512990865264 ], [ 105.23661029567684, -5.544469235540696 ], [ 105.236710059094563, -5.544543395038392 ], [ 105.236857478207696, -5.54454013454134 ], [ 105.237120830584772, -5.544797573450231 ], [ 105.237366442998109, -5.544838523883472 ], [ 105.237577185310244, -5.544956918967222 ], [ 105.237648155930955, -5.545013616755857 ], [ 105.23770361864932, -5.545119149551296 ], [ 105.237722770752796, -5.545222063524408 ], [ 105.237831576494429, -5.545505652123842 ], [ 105.23794032535757, -5.545649220722843 ], [ 105.238276053188528, -5.545888438576635 ], [ 105.238541236882909, -5.545945776289528 ], [ 105.238634439709344, -5.546040282504394 ], [ 105.238701338217624, -5.546068977799833 ], [ 105.238990383555162, -5.546060484164143 ], [ 105.239189280275454, -5.546123233665582 ], [ 105.239370229770046, -5.546111791892326 ], [ 105.239534466215233, -5.546122496053377 ], [ 105.239670603965891, -5.546057815344065 ], [ 105.239895412018043, -5.545867781777263 ], [ 105.240021452626181, -5.545643696893035 ], [ 105.240162346753223, -5.545528271154445 ], [ 105.240265535244617, -5.54550620945515 ], [ 105.240485306219043, -5.545502289939364 ], [ 105.240613365564442, -5.545546279309308 ], [ 105.240904647306394, -5.545848064033771 ], [ 105.241210469087889, -5.545974198042165 ], [ 105.241504585370706, -5.546373530275093 ], [ 105.241557669873117, -5.546410312014586 ], [ 105.241600290040893, -5.546417927952008 ], [ 105.24164298454474, -5.546410746683125 ], [ 105.241696440217765, -5.546374508548062 ], [ 105.241848958891694, -5.546153452071603 ], [ 105.24189557747998, -5.546118073407136 ], [ 105.242228735618113, -5.546036013946314 ], [ 105.242563903248751, -5.545924757174633 ], [ 105.242798366394851, -5.545765594804629 ] ] ] } },
{ "type": "Feature", "properties": { "OBJECTID": 2, "Id": 0, "NAMAOBJ": "", "JENIS": "", "DESA": "", "KECAMATAN": "", "KABUPATEN": "", "PROVINSI": "", "TAHUN": "", "REMARK": "", "Shape_Length": 2308.1038346304003 }, "geometry": { "type": "MultiLineString", "coordinates": [ [ [ 105.242904301268226, -5.552012820349877 ], [ 105.242999189140988, -5.552106169871042 ], [ 105.243244329051237, -5.552210904849495 ], [ 105.243333219193431, -5.552271185920128 ], [ 105.243941155055722, -5.552782192503608 ], [ 105.244223659141724, -5.553121716802273 ], [ 105.244339111324692, -5.553291848704164 ], [ 105.24457279963103, -5.553431055448923 ], [ 105.244759195568307, -5.553588233326393 ], [ 105.244878908972609, -5.553662861602815 ], [ 105.24556929313222, -5.554246356117136 ], [ 105.24566642265205, -5.554396215166772 ], [ 105.245729375591807, -5.554890387315787 ], [ 105.245841986032573, -5.555118682858326 ], [ 105.245972488273509, -5.555286654185437 ], [ 105.246176682296451, -5.555442806434658 ], [ 105.246342476382395, -5.55560190655545 ], [ 105.246611841009383, -5.555935212941202 ], [ 105.246899660224926, -5.556412361563892 ], [ 105.247013002708712, -5.55656253200497 ], [ 105.247513648755586, -5.55698310383165 ], [ 105.247791782053824, -5.557146704923662 ], [ 105.248067972551169, -5.557232755713514 ], [ 105.248413912044242, -5.55730250078908 ], [ 105.24900828433185, -5.557349164052722 ], [ 105.24930560830083, -5.557414621212242 ], [ 105.249500340157581, -5.557504894175827 ], [ 105.24953022006477, -5.557549760625265 ], [ 105.249652083758306, -5.557624506365981 ], [ 105.249713635833345, -5.557714237583162 ], [ 105.249769301197375, -5.558009814345663 ], [ 105.249879330615343, -5.558342946738263 ], [ 105.249888690457809, -5.558444906294077 ], [ 105.250002004037114, -5.558635144322157 ], [ 105.250366960306835, -5.559047154305534 ], [ 105.250565541231907, -5.559200016217845 ], [ 105.250637221657001, -5.559233016818247 ], [ 105.25072324572271, -5.559175216464399 ], [ 105.250774601744908, -5.559164424034485 ], [ 105.250968110730767, -5.559185883024178 ], [ 105.251104275409389, -5.55918103777546 ], [ 105.251247593085608, -5.559145074443409 ], [ 105.251394472967448, -5.559058845186063 ], [ 105.251439842055333, -5.55901215199525 ], [ 105.251536512658248, -5.558824218505227 ], [ 105.251635624176231, -5.558760748512238 ], [ 105.251765805492681, -5.558730773931534 ], [ 105.252107486804817, -5.55889697737671 ], [ 105.252150486650464, -5.558896959011456 ], [ 105.252357170528413, -5.559003382706578 ], [ 105.252426471251098, -5.559056011117826 ], [ 105.252593772190622, -5.559242634103033 ], [ 105.252646325126889, -5.559235431505322 ], [ 105.252721550623903, -5.559177954827709 ], [ 105.252735825947994, -5.55912672000345 ], [ 105.252726567726128, -5.559063099912706 ], [ 105.252519723537134, -5.558697182073288 ], [ 105.252625679595241, -5.558438635686744 ], [ 105.252606996603987, -5.558320882500679 ], [ 105.252543890772813, -5.558230433991909 ], [ 105.252391907401233, -5.558111301236219 ], [ 105.252291498151791, -5.557931829698028 ], [ 105.252151369247159, -5.557747833822329 ], [ 105.252101665779449, -5.557714346368274 ], [ 105.251972575742585, -5.557500898874702 ], [ 105.251950497283275, -5.557264427904328 ], [ 105.251886354132878, -5.556978189956586 ], [ 105.251845056369632, -5.556485141203629 ], [ 105.251816321110425, -5.556325266003863 ], [ 105.251813365416524, -5.556115593986052 ], [ 105.251850517186426, -5.55584367394231 ], [ 105.252066219043812, -5.555251902817107 ], [ 105.252205639518905, -5.555041212921529 ], [ 105.252419512582421, -5.554642839501931 ], [ 105.252646810599586, -5.554355519008243 ], [ 105.252787182732007, -5.554135254801499 ], [ 105.252870282849187, -5.554059583398845 ], [ 105.253066974543302, -5.553706214697496 ], [ 105.253151907097347, -5.553445763014409 ], [ 105.253099985385902, -5.552878519598449 ], [ 105.253078458566719, -5.5528139042223 ], [ 105.253109478100498, -5.55273011787823 ] ] ] } },
{ "type": "Feature", "properties": { "OBJECTID": 3, "Id": 0, "NAMAOBJ": "", "JENIS": "", "DESA": "", "KECAMATAN": "", "KABUPATEN": "", "PROVINSI": "", "TAHUN": "", "REMARK": "", "Shape_Length": 145.74423100901356 }, "geometry": { "type": "MultiLineString", "coordinates": [ [ [ 105.25373279665547, -5.552322950948338 ], [ 105.253701773136143, -5.552397163543754 ], [ 105.253654113437236, -5.552672438975161 ], [ 105.25345367867348, -5.553208674702883 ], [ 105.253284133444666, -5.553359539624107 ], [ 105.253151907097347, -5.553445763014409 ] ] ] } },
{ "type": "Feature", "properties": { "OBJECTID": 4, "Id": 0, "NAMAOBJ": "", "JENIS": "", "DESA": "", "KECAMATAN": "", "KABUPATEN": "", "PROVINSI": "", "TAHUN": "", "REMARK": "", "Shape_Length": 65.704936195740785 }, "geometry": { "type": "MultiLineString", "coordinates": [ [ [ 105.253654113437236, -5.552672438975161 ], [ 105.253398482712001, -5.552619891495043 ], [ 105.253271869471021, -5.552610371990213 ], [ 105.253214546660701, -5.552633134619288 ], [ 105.253109478100498, -5.55273011787823 ] ] ] } },
{ "type": "Feature", "properties": { "OBJECTID": 5, "Id": 0, "NAMAOBJ": "", "JENIS": "", "DESA": "", "KECAMATAN": "", "KABUPATEN": "", "PROVINSI": "", "TAHUN": "", "REMARK": "", "Shape_Length": 101.80261362700315 }, "geometry": { "type": "MultiLineString", "coordinates": [ [ [ 105.253398482712001, -5.552619891495043 ], [ 105.253261472509649, -5.552598947254594 ], [ 105.25318358064041, -5.552562997764398 ], [ 105.253041593618349, -5.552355300407977 ], [ 105.252802158627887, -5.552187855843266 ], [ 105.252752925768448, -5.552134741199025 ], [ 105.252725662216889, -5.552063904351749 ] ] ] } },
{ "type": "Feature", "properties": { "OBJECTID": 6, "Id": 0, "NAMAOBJ": "", "JENIS": "", "DESA": "", "KECAMATAN": "", "KABUPATEN": "", "PROVINSI": "", "TAHUN": "", "REMARK": "", "Shape_Length": 207.03164014704072 }, "geometry": { "type": "MultiLineString", "coordinates": [ [ [ 105.247321017857331, -5.563391395061108 ], [ 105.24718266127708, -5.56310964485186 ], [ 105.247144586668966, -5.563080071011341 ], [ 105.246968185671108, -5.562838518876661 ], [ 105.246929449007339, -5.562752009210101 ], [ 105.247048000110269, -5.562613015366369 ], [ 105.247184834186754, -5.562494478554464 ], [ 105.247245658928506, -5.562413880605471 ], [ 105.247242120774033, -5.56237992379849 ], [ 105.247137075078669, -5.562252513405672 ], [ 105.247076653677297, -5.562144213774545 ], [ 105.24708805728342, -5.562120679371878 ], [ 105.247160290953346, -5.56207047519467 ], [ 105.247174965234294, -5.562028463099725 ], [ 105.247231911015874, -5.561958428423208 ], [ 105.247227359662418, -5.561891636405028 ] ] ] } },
{ "type": "Feature", "properties": { "OBJECTID": 7, "Id": 0, "NAMAOBJ": "", "JENIS": "", "DESA": "", "KECAMATAN": "", "KABUPATEN": "", "PROVINSI": "", "TAHUN": "", "REMARK": "", "Shape_Length": 1868.2140329218053 }, "geometry": { "type": "MultiLineString", "coordinates": [ [ [ 105.224478292663377, -5.544167746272954 ], [ 105.224883898164464, -5.544121158051255 ], [ 105.22495157335959, -5.544138302395564 ], [ 105.225080675749979, -5.544191142168405 ], [ 105.225408105968498, -5.544380417441739 ], [ 105.225780809647503, -5.544500909073724 ], [ 105.22674509669659, -5.544906722679693 ], [ 105.227256434379555, -5.545070697807393 ], [ 105.227457499142901, -5.54516612425677 ], [ 105.22768109150887, -5.545346772576446 ], [ 105.228017854747478, -5.545697262162907 ], [ 105.22832391361176, -5.545934735023737 ], [ 105.228516285429066, -5.546117766107569 ], [ 105.228723021704056, -5.546382171119675 ], [ 105.229106244387523, -5.54682709907445 ], [ 105.229367148587826, -5.547098181707515 ], [ 105.229565901744337, -5.54722768062307 ], [ 105.230041715280507, -5.547447857766236 ], [ 105.230419468991855, -5.547648048527924 ], [ 105.230593405059508, -5.547844084818963 ], [ 105.230789218818629, -5.548149707746598 ], [ 105.231004470014895, -5.548388689998258 ], [ 105.231062426177672, -5.548567511809098 ], [ 105.231098087468169, -5.548919423316124 ], [ 105.231178063468718, -5.549224848893541 ], [ 105.231220559223118, -5.549327715078775 ], [ 105.2313168374085, -5.549484373586595 ], [ 105.231428329873637, -5.54962004301705 ], [ 105.231920108002782, -5.550009277557589 ], [ 105.232030500369419, -5.550078646296977 ], [ 105.232354005302653, -5.550218301363394 ], [ 105.232761315856507, -5.550431530115458 ], [ 105.233195851314065, -5.550714452981604 ], [ 105.233375429262253, -5.550896225404847 ], [ 105.233499998537852, -5.550978512833568 ], [ 105.234116888943547, -5.551199431347792 ], [ 105.234381999215728, -5.551216502670915 ], [ 105.234464187470422, -5.551236250911545 ], [ 105.234571768529875, -5.551302651241958 ], [ 105.234694606643956, -5.551431374206602 ], [ 105.234777776429652, -5.551526604172691 ], [ 105.235015843333159, -5.551872613525921 ], [ 105.235271334125727, -5.552177447529728 ], [ 105.235816295056608, -5.552934063786991 ], [ 105.236546657065233, -5.55434990230358 ], [ 105.236597483445308, -5.554505461704624 ], [ 105.236592811009046, -5.554555153566806 ] ] ] } },
{ "type": "Feature", "properties": { "OBJECTID": 8, "Id": 0, "NAMAOBJ": "", "JENIS": "", "DESA": "", "KECAMATAN": "", "KABUPATEN": "", "PROVINSI": "", "TAHUN": "", "REMARK": "", "Shape_Length": 57.163099704380784 }, "geometry": { "type": "MultiLineString", "coordinates": [ [ [ 105.236106507362479, -5.554521774263359 ], [ 105.23602113738292, -5.554957089743688 ], [ 105.236019599048007, -5.555030116409394 ] ] ] } },
{ "type": "Feature", "properties": { "OBJECTID": 9, "Id": 0, "NAMAOBJ": "", "JENIS": "", "DESA": "", "KECAMATAN": "", "KABUPATEN": "", "PROVINSI": "", "TAHUN": "", "REMARK": "", "Shape_Length": 75.258814106381379 }, "geometry": { "type": "MultiLineString", "coordinates": [ [ [ 105.23666940172572, -5.554560776880752 ], [ 105.236629305667506, -5.554897630611808 ], [ 105.236553367236752, -5.555230398870365 ] ] ] } },
{ "type": "Feature", "properties": { "OBJECTID": 10, "Id": 0, "NAMAOBJ": "", "JENIS": "", "DESA": "", "KECAMATAN": "", "KABUPATEN": "", "PROVINSI": "", "TAHUN": "", "REMARK": "", "Shape_Length": 1064.0163963659165 }, "geometry": { "type": "MultiLineString", "coordinates": [ [ [ 105.240060103830572, -5.554130619261317 ], [ 105.240101475869523, -5.554171708315095 ], [ 105.240393100066512, -5.554619778349368 ], [ 105.240857753280338, -5.555252198166873 ], [ 105.241349480770339, -5.556078601656731 ], [ 105.241779983990597, -5.556733653249738 ], [ 105.242101283297785, -5.557306053566532 ], [ 105.242153917070425, -5.557498950600831 ], [ 105.242238651776745, -5.558148667685665 ], [ 105.242221389136319, -5.55884134624722 ], [ 105.242193520613355, -5.558880903937625 ], [ 105.242056149731468, -5.558917050819481 ], [ 105.242020968695059, -5.558978632202416 ], [ 105.242216636542707, -5.559570761537504 ], [ 105.24256499113865, -5.559995469096882 ], [ 105.242932794050745, -5.560483121274377 ], [ 105.243052013488395, -5.560693220505971 ], [ 105.243226418434489, -5.561140868474919 ], [ 105.243622183585927, -5.561710473344476 ], [ 105.243766386735146, -5.561892689285493 ], [ 105.244015816154175, -5.5621511986413 ], [ 105.244162567775703, -5.562327540509487 ] ] ] } },
{ "type": "Feature", "properties": { "OBJECTID": 11, "Id": 0, "NAMAOBJ": "", "JENIS": "", "DESA": "", "KECAMATAN": "", "KABUPATEN": "", "PROVINSI": "", "TAHUN": "", "REMARK": "", "Shape_Length": 29.676598278067843 }, "geometry": { "type": "MultiLineString", "coordinates": [ [ [ 105.234806470189113, -5.55449549065748 ], [ 105.234782192833705, -5.554762704357895 ] ] ] } },
{ "type": "Feature", "properties": { "OBJECTID": 12, "Id": 0, "NAMAOBJ": "", "JENIS": "", "DESA": "", "KECAMATAN": "", "KABUPATEN": "", "PROVINSI": "", "TAHUN": "", "REMARK": "", "Shape_Length": 378.38920044823044 }, "geometry": { "type": "MultiLineString", "coordinates": [ [ [ 105.236230009094456, -5.553741171889751 ], [ 105.236604173551413, -5.5536266966598 ], [ 105.237548459611872, -5.55339540245179 ], [ 105.237572133231836, -5.55335530658834 ], [ 105.237563523158144, -5.553318627858927 ], [ 105.237215875909925, -5.5528127117604 ], [ 105.236689373055924, -5.551921333583346 ], [ 105.236610221021508, -5.55174311254764 ], [ 105.236616392884088, -5.551620376837032 ] ] ] } },
{ "type": "Feature", "properties": { "OBJECTID": 13, "Id": 0, "NAMAOBJ": "", "JENIS": "", "DESA": "", "KECAMATAN": "", "KABUPATEN": "", "PROVINSI": "", "TAHUN": "", "REMARK": "", "Shape_Length": 972.07994110459208 }, "geometry": { "type": "MultiLineString", "coordinates": [ [ [ 105.229124424661308, -5.546846184446891 ], [ 105.22910585408448, -5.546966844292794 ], [ 105.229093836436604, -5.54739624776769 ], [ 105.229107122439245, -5.547642747791517 ], [ 105.229147019547568, -5.54778613304741 ], [ 105.22927255539156, -5.548102030581632 ], [ 105.229497778653709, -5.548603866051799 ], [ 105.229904888741203, -5.549349292587522 ], [ 105.230108576127549, -5.549756112835228 ], [ 105.230225122316895, -5.549925826629389 ], [ 105.230483326508875, -5.550216482489003 ], [ 105.230732846084408, -5.550532330384005 ], [ 105.231138252245159, -5.551190871412759 ], [ 105.231445189856274, -5.551724029710537 ], [ 105.232103001631032, -5.552739585466864 ], [ 105.232326721063373, -5.553051613378932 ], [ 105.232683412629669, -5.553747511270718 ], [ 105.233011377735508, -5.554288319892332 ], [ 105.23312326683731, -5.554513200636964 ] ] ] } },
{ "type": "Feature", "properties": { "OBJECTID": 14, "Id": 0, "NAMAOBJ": "", "JENIS": "", "DESA": "", "KECAMATAN": "", "KABUPATEN": "", "PROVINSI": "", "TAHUN": "", "REMARK": "", "Shape_Length": 517.59765641643878 }, "geometry": { "type": "MultiLineString", "coordinates": [ [ [ 105.244493646727079, -5.548726884404696 ], [ 105.244985660871365, -5.548541266133557 ], [ 105.245455696715581, -5.548324217694323 ], [ 105.246617865792786, -5.547740670505963 ], [ 105.246891073167305, -5.547629162102677 ], [ 105.24709261959714, -5.547577744252636 ], [ 105.247298555078814, -5.547548613879681 ], [ 105.247750090321816, -5.54753483274485 ], [ 105.248595890488787, -5.547456574982538 ], [ 105.248741367260124, -5.547395350343431 ], [ 105.248857931463576, -5.547288791947106 ] ] ] } },
{ "type": "Feature", "properties": { "OBJECTID": 15, "Id": 0, "NAMAOBJ": "", "JENIS": "", "DESA": "", "KECAMATAN": "", "KABUPATEN": "", "PROVINSI": "", "TAHUN": "", "REMARK": "", "Shape_Length": 324.6951342346419 }, "geometry": { "type": "MultiLineString", "coordinates": [ [ [ 105.23461896594138, -5.551352110828896 ], [ 105.233791001201638, -5.551549941449143 ], [ 105.233622591493841, -5.551611315413772 ], [ 105.232567381457571, -5.552092352649334 ], [ 105.232175710232639, -5.552351965240694 ], [ 105.231941377486137, -5.552487052909067 ] ] ] } },
{ "type": "Feature", "properties": { "OBJECTID": 16, "Id": 0, "NAMAOBJ": "", "JENIS": "", "DESA": "", "KECAMATAN": "", "KABUPATEN": "", "PROVINSI": "", "TAHUN": "", "REMARK": "", "Shape_Length": 82.717180923542657 }, "geometry": { "type": "MultiLineString", "coordinates": [ [ [ 105.230155744748259, -5.549830371686887 ], [ 105.23082266400489, -5.5494948488243 ] ] ] } },
{ "type": "Feature", "properties": { "OBJECTID": 17, "Id": 0, "NAMAOBJ": "", "JENIS": "", "DESA": "", "KECAMATAN": "", "KABUPATEN": "", "PROVINSI": "", "TAHUN": "", "REMARK": "", "Shape_Length": 142.92758575981313 }, "geometry": { "type": "MultiLineString", "coordinates": [ [ [ 105.224778897701498, -5.544137431695954 ], [ 105.224747282775979, -5.544041256076376 ], [ 105.224743382563901, -5.543836371138839 ], [ 105.224683253080954, -5.543758323559366 ], [ 105.224603398369851, -5.543700709318091 ], [ 105.224461468367082, -5.543662512274137 ], [ 105.224363549375468, -5.543672282416108 ], [ 105.224272483587185, -5.543709637838965 ], [ 105.224177882917814, -5.543782465511295 ], [ 105.224116846451111, -5.54379622557915 ], [ 105.224056538851954, -5.543779546046633 ], [ 105.223892539478371, -5.543672377532602 ] ] ] } },
{ "type": "Feature", "properties": { "OBJECTID": 18, "Id": 0, "NAMAOBJ": "", "JENIS": "", "DESA": "", "KECAMATAN": "", "KABUPATEN": "", "PROVINSI": "", "TAHUN": "", "REMARK": "", "Shape_Length": 206.52606143152511 }, "geometry": { "type": "MultiLineString", "coordinates": [ [ [ 105.227000736612837, -5.544996980073692 ], [ 105.226946372692964, -5.545278929120229 ], [ 105.226996134447774, -5.545449979176628 ], [ 105.227087588078831, -5.545661771760915 ], [ 105.227105047570802, -5.545765364376067 ], [ 105.227101504239073, -5.545870364528946 ], [ 105.226960645392737, -5.546349960737841 ], [ 105.226847283940543, -5.546633038772458 ], [ 105.226764918019512, -5.546762919587955 ] ] ] } },
{ "type": "Feature", "properties": { "OBJECTID": 19, "Id": 0, "NAMAOBJ": "", "JENIS": "", "DESA": "", "KECAMATAN": "", "KABUPATEN": "", "PROVINSI": "", "TAHUN": "", "REMARK": "", "Shape_Length": 124.0133173388115 }, "geometry": { "type": "MultiLineString", "coordinates": [ [ [ 105.230419468991855, -5.547648048527924 ], [ 105.230342761080578, -5.547493869075155 ], [ 105.230226783345557, -5.547186944795307 ], [ 105.230212594492016, -5.547088377204198 ], [ 105.230245552119698, -5.54697026100725 ], [ 105.230467008533708, -5.546640408433611 ] ] ] } },
{ "type": "Feature", "properties": { "OBJECTID": 20, "Id": 0, "NAMAOBJ": "", "JENIS": "", "DESA": "", "KECAMATAN": "", "KABUPATEN": "", "PROVINSI": "", "TAHUN": "", "REMARK": "", "Shape_Length": 2057.7354906451901 }, "geometry": { "type": "MultiLineString", "coordinates": [ [ [ 105.243887116343075, -5.551095591897562 ], [ 105.244056062622775, -5.551283988172335 ], [ 105.244461123391062, -5.551646440502767 ], [ 105.244658259005817, -5.551780994432047 ], [ 105.244906147672481, -5.551888600708508 ], [ 105.245284088318911, -5.552016139090455 ], [ 105.245422877630517, -5.552014963344216 ], [ 105.245548705857843, -5.551956274248861 ], [ 105.245613995947764, -5.551890025801184 ], [ 105.245721096177959, -5.551646875170206 ], [ 105.245759734775291, -5.551498939012893 ], [ 105.246064917325867, -5.551225950580188 ], [ 105.246135133304676, -5.551185710183904 ], [ 105.246787189860825, -5.550942734784908 ], [ 105.247121059942202, -5.550722869584889 ], [ 105.247532323634147, -5.550491482903783 ], [ 105.248036748852456, -5.550251440195766 ], [ 105.248270338818173, -5.550156557802449 ], [ 105.248518286431107, -5.55012055126692 ], [ 105.248657296640545, -5.550070228420956 ], [ 105.248866485737111, -5.549892062424426 ], [ 105.24897711862576, -5.549854618115504 ], [ 105.249134515358605, -5.549893864668689 ], [ 105.249225789471353, -5.549941696024308 ], [ 105.249373477243452, -5.550076629253372 ], [ 105.249538389227055, -5.550271871000552 ], [ 105.249844070655939, -5.550507743835674 ], [ 105.249909081053431, -5.550587181559028 ], [ 105.249946340707183, -5.550655668605767 ], [ 105.249963607657534, -5.550731726875794 ], [ 105.250003946394656, -5.551220947017433 ], [ 105.250059851904552, -5.551365803835464 ], [ 105.250139703005374, -5.551498920979477 ], [ 105.250176151329896, -5.551523064812219 ], [ 105.250421267483759, -5.551569395173258 ], [ 105.250538826849223, -5.551635406532287 ], [ 105.250726258431698, -5.551786268586199 ], [ 105.250762178706211, -5.551855492514466 ], [ 105.250776895523245, -5.551962261571847 ], [ 105.250711091739916, -5.552268660448591 ], [ 105.250709395667016, -5.552361552087919 ], [ 105.250732614070515, -5.552451499417293 ], [ 105.250791308825796, -5.552538594747671 ], [ 105.250845985214269, -5.552543140868233 ], [ 105.250891845700522, -5.552512966206383 ], [ 105.25103619334574, -5.552215625568551 ], [ 105.251142434388413, -5.55206598501333 ], [ 105.251316744265793, -5.551885199582286 ], [ 105.251482711185304, -5.551746305094073 ], [ 105.251619976884058, -5.551680483132502 ], [ 105.251720796220567, -5.551657096934267 ], [ 105.252174248731578, -5.551661039656253 ], [ 105.252411926201461, -5.551628625455613 ], [ 105.252623154239828, -5.551558648339984 ], [ 105.252771736059145, -5.551470912767194 ], [ 105.252821237585721, -5.551417285483891 ], [ 105.25284881008281, -5.551352940383982 ], [ 105.252846656653418, -5.551251041110745 ], [ 105.252820861027772, -5.551217932454657 ], [ 105.252130495114955, -5.550729318576087 ], [ 105.252053674011776, -5.550633012844136 ], [ 105.252018595522827, -5.550490253348761 ], [ 105.251970134958654, -5.549986540950671 ], [ 105.251932316723554, -5.549853233362637 ], [ 105.251905066322109, -5.549789477961736 ], [ 105.251789613066236, -5.549620064961672 ], [ 105.251667003847928, -5.54947435196765 ], [ 105.251473427766442, -5.549287020508849 ], [ 105.251382625127903, -5.549224828176967 ], [ 105.251178121058345, -5.549180873689103 ], [ 105.251056746261298, -5.549131140297015 ], [ 105.250520014215141, -5.548663194295396 ], [ 105.250240395470215, -5.548368909122999 ], [ 105.249815853517703, -5.547695550356885 ], [ 105.249487070481223, -5.547264924029819 ], [ 105.249365797135766, -5.547201826003487 ], [ 105.2492751343257, -5.547189707689004 ], [ 105.248911250552396, -5.547246427025646 ], [ 105.248857931463576, -5.547288791947106 ] ] ] } },
{ "type": "Feature", "properties": { "OBJECTID": 21, "Id": 0, "NAMAOBJ": "", "JENIS": "", "DESA": "", "KECAMATAN": "", "KABUPATEN": "", "PROVINSI": "", "TAHUN": "", "REMARK": "", "Shape_Length": 33.72561609951542 }, "geometry": { "type": "MultiLineString", "coordinates": [ [ [ 105.250619790515074, -5.548738747181485 ], [ 105.25076954819977, -5.548473101920128 ] ] ] } },
{ "type": "Feature", "properties": { "OBJECTID": 22, "Id": 0, "NAMAOBJ": "", "JENIS": "", "DESA": "", "KECAMATAN": "", "KABUPATEN": "", "PROVINSI": "", "TAHUN": "", "REMARK": "", "Shape_Length": 1532.5832010088668 }, "geometry": { "type": "MultiLineString", "coordinates": [ [ [ 105.241793600255491, -5.552718404285989 ], [ 105.241858163600511, -5.552790588813628 ], [ 105.242015926499079, -5.55302927818483 ], [ 105.242054274301239, -5.553108838084176 ], [ 105.242086219875631, -5.55324384679037 ], [ 105.242121745960546, -5.553305088913897 ], [ 105.242276498198052, -5.553484540100341 ], [ 105.242469473885492, -5.553666368325397 ], [ 105.24262184465384, -5.553863772029538 ], [ 105.24274435919834, -5.554072258014106 ], [ 105.242995929619696, -5.554418019508106 ], [ 105.243045182575386, -5.554433603352853 ], [ 105.243082732465197, -5.554422837183601 ], [ 105.243204535805688, -5.554285591433603 ], [ 105.243274609461878, -5.554242589555198 ], [ 105.243395386654825, -5.554220986806442 ], [ 105.243513509675978, -5.554239693995937 ], [ 105.243942668441406, -5.554782641802752 ], [ 105.244331025434363, -5.555183994987146 ], [ 105.244384079213347, -5.555255591430266 ], [ 105.244512185759078, -5.555677585557122 ], [ 105.244550503393526, -5.555888534007277 ], [ 105.24455775860234, -5.556043145409836 ], [ 105.244524995652526, -5.556327422489794 ], [ 105.244537723250374, -5.556779793239262 ], [ 105.244550285907181, -5.556830052440837 ], [ 105.244676447174498, -5.557188430435485 ], [ 105.244967036705646, -5.557803777705299 ], [ 105.245021779151088, -5.557879627883029 ], [ 105.245142968360568, -5.557988153132771 ], [ 105.245183353105119, -5.55805505243404 ], [ 105.245223698638952, -5.558289026618821 ], [ 105.245305944115785, -5.558502816295375 ], [ 105.24551455351461, -5.558840334119434 ], [ 105.245700974673497, -5.559053519516935 ], [ 105.245920411000469, -5.559382346333298 ], [ 105.246029423983401, -5.559574739996208 ], [ 105.246149232741672, -5.559875556310919 ], [ 105.246321369506362, -5.560205073006665 ], [ 105.24640167253736, -5.560290488860232 ], [ 105.246618267853819, -5.56067886704886 ], [ 105.246879675481438, -5.56101933215708 ], [ 105.246902238987232, -5.561089477375028 ], [ 105.24693995060187, -5.561409545951461 ], [ 105.247103912306457, -5.561783754887873 ], [ 105.247151289621158, -5.561837923748217 ], [ 105.247292734652532, -5.561931549667356 ], [ 105.247615701859118, -5.561992495348876 ], [ 105.247672774269503, -5.562039730570558 ], [ 105.247712497772881, -5.562102317534731 ], [ 105.247787842791396, -5.562328473355357 ], [ 105.247828114446918, -5.562658763167192 ], [ 105.247951062902388, -5.563159306307131 ], [ 105.247924373090981, -5.563195112226898 ], [ 105.247831934817313, -5.563224590693714 ], [ 105.247492353219386, -5.563445431383912 ], [ 105.247421378934362, -5.563454541912109 ], [ 105.247321017857331, -5.563391395061108 ] ] ] } },
{ "type": "Feature", "properties": { "OBJECTID": 23, "Id": 0, "NAMAOBJ": "", "JENIS": "", "DESA": "", "KECAMATAN": "", "KABUPATEN": "", "PROVINSI": "", "TAHUN": "", "REMARK": "", "Shape_Length": 1008.5018529697172 }, "geometry": { "type": "MultiLineString", "coordinates": [ [ [ 105.239312525453016, -5.554756640155919 ], [ 105.239380615861904, -5.555049215159992 ], [ 105.239439424604726, -5.555193863818331 ], [ 105.239647393662537, -5.555492866513049 ], [ 105.239802336686552, -5.5558496789535 ], [ 105.240203219110867, -5.556511565685915 ], [ 105.240325112037809, -5.55665943622377 ], [ 105.240414723261665, -5.556729051473258 ], [ 105.240634075943873, -5.556861084558475 ], [ 105.241036955049822, -5.557140244510125 ], [ 105.241382554981328, -5.557552986565435 ], [ 105.241551066548993, -5.557788441118704 ], [ 105.2417540419777, -5.558178263440749 ], [ 105.241783776662373, -5.558262409754839 ], [ 105.241787097721755, -5.558395821719915 ], [ 105.241715959289564, -5.558745099988696 ], [ 105.241725407794959, -5.558923954846541 ], [ 105.241746275630931, -5.558966896712073 ], [ 105.241813158091887, -5.559034164446822 ], [ 105.241941531162766, -5.559255273257659 ], [ 105.242228793612327, -5.559907976687547 ], [ 105.242755752875482, -5.560576985188554 ], [ 105.242828251279008, -5.560698551380126 ], [ 105.242893793746902, -5.560910112006193 ], [ 105.242988469980304, -5.561095810594129 ], [ 105.243183037043025, -5.561364403406956 ], [ 105.24347275756665, -5.561818814759654 ], [ 105.243886479608349, -5.562312667569579 ] ] ] } },
{ "type": "Feature", "properties": { "OBJECTID": 24, "Id": 0, "NAMAOBJ": "", "JENIS": "", "DESA": "", "KECAMATAN": "", "KABUPATEN": "", "PROVINSI": "", "TAHUN": "", "REMARK": "", "Shape_Length": 1901.6789537305588 }, "geometry": { "type": "MultiLineString", "coordinates": [ [ [ 105.241308686189981, -5.541684868993077 ], [ 105.241380611571387, -5.541942929483541 ], [ 105.241398667524393, -5.542357873561996 ], [ 105.241425058537686, -5.542554534870844 ], [ 105.241634691884343, -5.543469733795724 ], [ 105.241732229350077, -5.54365064522047 ], [ 105.241933922045888, -5.543836300505833 ], [ 105.242386035506257, -5.544197059094917 ], [ 105.24252179224716, -5.544373167369367 ], [ 105.24260498233599, -5.54451770265727 ], [ 105.242680560895423, -5.544740748298485 ], [ 105.242723648533527, -5.544958062798316 ], [ 105.242808096985485, -5.5458417179505 ], [ 105.242886559512229, -5.546108803781221 ], [ 105.243046265711243, -5.546431385649603 ], [ 105.243145692756528, -5.546556765680744 ], [ 105.243299592290114, -5.546699356655771 ], [ 105.243648459974338, -5.546937608822467 ], [ 105.243813829274117, -5.547087853596811 ], [ 105.244092989742228, -5.547438151051452 ], [ 105.244244074712483, -5.547706163787562 ], [ 105.244327465819609, -5.547955225131547 ], [ 105.244363777283965, -5.548338963134833 ], [ 105.244590985282997, -5.549038663925376 ], [ 105.244623860823225, -5.549324127026777 ], [ 105.244611746427267, -5.54951551821449 ], [ 105.244389752601535, -5.550106186817009 ], [ 105.244307133547721, -5.550485623533707 ], [ 105.244219510800846, -5.55070957127386 ], [ 105.244120959583825, -5.550852211010383 ], [ 105.244005581438785, -5.550981564922993 ], [ 105.243128748516014, -5.551847425320815 ], [ 105.242717987286653, -5.55214630571114 ], [ 105.24188904076523, -5.552645976973549 ], [ 105.241555703936868, -5.552921433668313 ], [ 105.241374055377207, -5.553045938184333 ], [ 105.240879380788158, -5.553277874012059 ], [ 105.240728248811465, -5.553374731908876 ], [ 105.240593403549227, -5.553493294459446 ], [ 105.240019706699172, -5.554171575085689 ], [ 105.239894680972199, -5.554341871579155 ], [ 105.23968808653207, -5.554543653616196 ], [ 105.239510295455176, -5.554684753427003 ], [ 105.239312525453016, -5.554756640155919 ], [ 105.238717249886122, -5.554748762771143 ] ] ] } },
{ "type": "Feature", "properties": { "OBJECTID": 25, "Id": 0, "NAMAOBJ": "", "JENIS": "", "DESA": "", "KECAMATAN": "", "KABUPATEN": "", "PROVINSI": "", "TAHUN": "", "REMARK": "", "Shape_Length": 545.00250656906405 }, "geometry": { "type": "MultiLineString", "coordinates": [ [ [ 105.237556299447817, -5.554626682077807 ], [ 105.235732193460336, -5.554502720068291 ], [ 105.234835385105896, -5.55449835862983 ], [ 105.234442178701457, -5.554441001481508 ], [ 105.233896116938666, -5.554322034470237 ], [ 105.233746819472572, -5.554307734225006 ], [ 105.233597441739221, -5.554321154821269 ], [ 105.233453064937052, -5.55436183831404 ], [ 105.232740078425806, -5.55469856476818 ] ] ] } },
{ "type": "Feature", "properties": { "OBJECTID": 26, "Id": null, "NAMAOBJ": null, "JENIS": null, "DESA": null, "KECAMATAN": null, "KABUPATEN": null, "PROVINSI": null, "TAHUN": null, "REMARK": null, "Shape_Length": 129.29415393377906 }, "geometry": { "type": "MultiLineString", "coordinates": [ [ [ 105.238717249886122, -5.554748762771143 ], [ 105.237556299447817, -5.554626682077807 ] ] ] } },
{ "type": "Feature", "properties": { "OBJECTID": 27, "Id": null, "NAMAOBJ": "Jalan Setapak", "JENIS": null, "DESA": null, "KECAMATAN": null, "KABUPATEN": null, "PROVINSI": null, "TAHUN": null, "REMARK": null, "Shape_Length": 757.38953398722947 }, "geometry": { "type": "MultiLineString", "coordinates": [ [ [ 105.244192820208326, -5.547608296747676 ], [ 105.244505772203212, -5.547549320746433 ], [ 105.244549473638671, -5.547514118582245 ], [ 105.244563783883592, -5.547458822075876 ], [ 105.244339945728711, -5.546867952336462 ], [ 105.244331323182934, -5.546812665305541 ], [ 105.244370703840659, -5.546727918801519 ], [ 105.244645042385329, -5.546390317416793 ], [ 105.2446772820729, -5.546366608892306 ], [ 105.244899411850923, -5.546288965961296 ], [ 105.245092151616106, -5.546194102669001 ], [ 105.245801996534766, -5.545911850532537 ], [ 105.245865991704008, -5.545848874688609 ], [ 105.245888896224713, -5.545780649111133 ], [ 105.245873799123046, -5.545666484604038 ], [ 105.245804212689791, -5.545494179917977 ], [ 105.245554169909298, -5.544618252773218 ], [ 105.245511153274336, -5.544575187218014 ], [ 105.244717105800433, -5.544574079515795 ], [ 105.244674121161623, -5.544608564011365 ], [ 105.244926833633997, -5.545704216282809 ], [ 105.24500008415238, -5.546074704113953 ], [ 105.245027857676646, -5.546226920629272 ] ] ] } },
{ "type": "Feature", "properties": { "OBJECTID": 28, "Id": null, "NAMAOBJ": "Jalan Setapak", "JENIS": null, "DESA": null, "KECAMATAN": null, "KABUPATEN": null, "PROVINSI": null, "TAHUN": null, "REMARK": null, "Shape_Length": 432.4203662860391 }, "geometry": { "type": "MultiLineString", "coordinates": [ [ [ 105.245027857676646, -5.546226920629272 ], [ 105.245120710240542, -5.546474373121567 ], [ 105.245763816375046, -5.547934875474198 ], [ 105.245772195752394, -5.547980349061095 ], [ 105.245739959097463, -5.548011478392068 ], [ 105.245696963981217, -5.548021070040257 ], [ 105.24563362614991, -5.547938520064047 ], [ 105.245387337468358, -5.547364176088097 ], [ 105.245263016033817, -5.547116496974722 ], [ 105.245219959698986, -5.546977690840345 ], [ 105.24491126045713, -5.546283134281176 ] ] ] } },
{ "type": "Feature", "properties": { "OBJECTID": 29, "Id": null, "NAMAOBJ": null, "JENIS": null, "DESA": null, "KECAMATAN": null, "KABUPATEN": null, "PROVINSI": null, "TAHUN": null, "REMARK": null, "Shape_Length": 322.49421607574146 }, "geometry": { "type": "MultiLineString", "coordinates": [ [ [ 105.240176724703247, -5.553998529937329 ], [ 105.239934277391626, -5.553709726728639 ], [ 105.239703667119102, -5.553501583408716 ], [ 105.239409789933461, -5.553385615721546 ], [ 105.239347653670549, -5.553322213069909 ], [ 105.239295091323868, -5.553303085874718 ], [ 105.239017967881267, -5.5532672947394 ], [ 105.238281021060985, -5.553311872612702 ], [ 105.238011071409758, -5.553292833825747 ], [ 105.237548459611872, -5.55339540245179 ] ] ] } },
{ "type": "Feature", "properties": { "OBJECTID": 30, "Id": null, "NAMAOBJ": null, "JENIS": null, "DESA": null, "KECAMATAN": null, "KABUPATEN": null, "PROVINSI": null, "TAHUN": null, "REMARK": null, "Shape_Length": 770.16721420775468 }, "geometry": { "type": "MultiLineString", "coordinates": [ [ [ 105.231190627356483, -5.55127973714893 ], [ 105.230648406608253, -5.551549578459133 ], [ 105.230561355120415, -5.551607774382717 ], [ 105.230461777053478, -5.551702956825151 ], [ 105.230393338524834, -5.551710612326864 ], [ 105.230206895649673, -5.551421546924069 ], [ 105.230155300114703, -5.551431140811544 ], [ 105.22988494390485, -5.551593048870093 ], [ 105.229814230164024, -5.551584459679474 ], [ 105.229473059696645, -5.551478319738383 ], [ 105.22925994163154, -5.55139414976754 ], [ 105.229070426121368, -5.551292478467452 ], [ 105.228997558638468, -5.551275751877298 ], [ 105.228922313194289, -5.551282962048044 ], [ 105.228745522974052, -5.551247127164227 ], [ 105.228669064120126, -5.551205270139962 ], [ 105.228381122476961, -5.550987570555002 ], [ 105.228277162048997, -5.550870326941001 ], [ 105.228252023634852, -5.550725528324452 ], [ 105.228253174871952, -5.550613032366765 ], [ 105.228298510255257, -5.550475386659794 ], [ 105.228318749586521, -5.550305437830907 ], [ 105.228302011375519, -5.550263557686163 ], [ 105.228193277679964, -5.550155891498853 ], [ 105.228097698730366, -5.550092499595092 ], [ 105.228010516237021, -5.550120058682961 ], [ 105.227963954134935, -5.550173930720496 ], [ 105.22794006686081, -5.550176333605776 ], [ 105.22776088524968, -5.550130925534249 ], [ 105.227531566740907, -5.550162129802719 ], [ 105.227434835988959, -5.550207644144759 ], [ 105.227167283765397, -5.550206550166762 ], [ 105.227049026781586, -5.55018385748122 ], [ 105.226978562657607, -5.550201836200409 ], [ 105.22690808754858, -5.550191091710651 ], [ 105.226736094039694, -5.550203125168147 ], [ 105.226634576988999, -5.550227099944166 ], [ 105.226450627033842, -5.550206825087336 ], [ 105.226370608243954, -5.550226004232286 ], [ 105.226214136378402, -5.550222473606935 ], [ 105.226140096926926, -5.550261994869301 ], [ 105.226105474627957, -5.550302698792295 ], [ 105.225958635741364, -5.550501417367653 ], [ 105.225811179819601, -5.550753991139471 ] ] ] } },
{ "type": "Feature", "properties": { "OBJECTID": 31, "Id": null, "NAMAOBJ": null, "JENIS": null, "DESA": null, "KECAMATAN": null, "KABUPATEN": null, "PROVINSI": null, "TAHUN": null, "REMARK": null, "Shape_Length": 149.40830447162281 }, "geometry": { "type": "MultiLineString", "coordinates": [ [ [ 105.228922313194289, -5.551282962048044 ], [ 105.228861032680484, -5.551805672746566 ], [ 105.228873954002665, -5.551860240103506 ], [ 105.228952869269477, -5.55207419108722 ], [ 105.228997331486156, -5.552151724056864 ], [ 105.229196902115405, -5.552411105356091 ], [ 105.229283531341892, -5.552497836601123 ] ] ] } },
{ "type": "Feature", "properties": { "OBJECTID": 32, "Id": null, "NAMAOBJ": null, "JENIS": null, "DESA": null, "KECAMATAN": null, "KABUPATEN": null, "PROVINSI": null, "TAHUN": null, "REMARK": null, "Shape_Length": 151.19420895140797 }, "geometry": { "type": "MultiLineString", "coordinates": [ [ [ 105.229029520203397, -5.552192290984469 ], [ 105.228993806289225, -5.552300483386113 ], [ 105.228901247571301, -5.552327445826721 ], [ 105.228662373857162, -5.552360449973231 ], [ 105.228516074997216, -5.552408376446509 ], [ 105.228384764801021, -5.552608885303055 ], [ 105.228319122460121, -5.552743547216513 ], [ 105.228262402743667, -5.552785455732139 ], [ 105.228078227929146, -5.552802460782817 ], [ 105.227990345174987, -5.552874301337434 ] ] ] } },
{ "type": "Feature", "properties": { "OBJECTID": 33, "Id": 0, "NAMAOBJ": "", "JENIS": "", "DESA": "", "KECAMATAN": "", "KABUPATEN": "", "PROVINSI": "", "TAHUN": "", "REMARK": "", "Shape_Length": 254.13469791329379 }, "geometry": { "type": "MultiLineString", "coordinates": [ [ [ 105.217355065359627, -5.544716721702579 ], [ 105.21732471462272, -5.54475364578428 ], [ 105.217313929717506, -5.544893839110528 ], [ 105.217132154814706, -5.545169995666273 ], [ 105.217066945295102, -5.545436687595495 ], [ 105.216898037718153, -5.545539610732202 ], [ 105.216823020040835, -5.54562770856012 ], [ 105.216802866134728, -5.545674360094341 ], [ 105.216765844024408, -5.545879498092653 ], [ 105.216662340407481, -5.54619907931905 ], [ 105.216677939441269, -5.546231805295339 ], [ 105.216743638152423, -5.546248536070991 ], [ 105.216746057707681, -5.546332308477553 ], [ 105.216714846739151, -5.546394851349064 ], [ 105.216824301938217, -5.546522626036909 ], [ 105.216752207266211, -5.546654296586652 ] ] ] } },
{ "type": "Feature", "properties": { "OBJECTID": 34, "Id": 0, "NAMAOBJ": "", "JENIS": "", "DESA": "", "KECAMATAN": "", "KABUPATEN": "", "PROVINSI": "", "TAHUN": "", "REMARK": "", "Shape_Length": 86.382002023315351 }, "geometry": { "type": "MultiLineString", "coordinates": [ [ [ 105.217355065359627, -5.544716721702579 ], [ 105.217450711749763, -5.544715662514546 ], [ 105.217533861934157, -5.544767332139438 ], [ 105.217539603187376, -5.544789350778671 ], [ 105.217548340748948, -5.545165610002282 ], [ 105.217513051901548, -5.545344659391363 ] ] ] } },
{ "type": "Feature", "properties": { "OBJECTID": 35, "Id": 0, "NAMAOBJ": "", "JENIS": "", "DESA": "", "KECAMATAN": "", "KABUPATEN": "", "PROVINSI": "", "TAHUN": "", "REMARK": "", "Shape_Length": 564.11323865941188 }, "geometry": { "type": "MultiLineString", "coordinates": [ [ [ 105.224478292663377, -5.544167746272954 ], [ 105.22421903453494, -5.544045754365908 ], [ 105.224130043377968, -5.544027836399828 ], [ 105.224029718578848, -5.544043432375403 ], [ 105.223969417690043, -5.544087735502472 ], [ 105.223905519572781, -5.544097932352066 ], [ 105.223673175906271, -5.544016640616521 ], [ 105.223506506155118, -5.543888649102233 ], [ 105.223284914578059, -5.54381393530733 ], [ 105.223198314925881, -5.543802598455573 ], [ 105.223049026937616, -5.543839754913255 ], [ 105.222903312067046, -5.543849383608048 ], [ 105.222877984538187, -5.5438338351498 ], [ 105.222757594050151, -5.543850635303554 ], [ 105.222192368687644, -5.543774254605724 ], [ 105.222032767534174, -5.543701072136697 ], [ 105.221762328609103, -5.543638462975256 ], [ 105.221439882903866, -5.543764484234614 ], [ 105.22092946885823, -5.544232370189544 ], [ 105.220736019858634, -5.544357384902739 ], [ 105.2204350725425, -5.544481003035207 ], [ 105.220230373525226, -5.544544747801272 ], [ 105.219999015183461, -5.54458790104269 ], [ 105.219887926064956, -5.5447104613373 ] ] ] } },
{ "type": "Feature", "properties": { "OBJECTID": 36, "Id": 0, "NAMAOBJ": "", "JENIS": "", "DESA": "", "KECAMATAN": "", "KABUPATEN": "", "PROVINSI": "", "TAHUN": "", "REMARK": "", "Shape_Length": 285.99171411144658 }, "geometry": { "type": "MultiLineString", "coordinates": [ [ [ 105.215559566996731, -5.543646218315065 ], [ 105.215800879268727, -5.543774172264675 ], [ 105.21599515071803, -5.543937100386851 ], [ 105.216033853287897, -5.543945702960468 ], [ 105.216142059580847, -5.543925557828186 ], [ 105.216301959248085, -5.544163177347519 ], [ 105.216384399707451, -5.544234953029474 ], [ 105.216446751657685, -5.544242829548794 ], [ 105.216672478604494, -5.544196072951858 ], [ 105.216841610570029, -5.544201755477112 ], [ 105.216904684782435, -5.544226864173997 ], [ 105.216919031377287, -5.544264197938959 ], [ 105.216804455168116, -5.544504071788503 ], [ 105.216805188694153, -5.544552181188254 ], [ 105.216896207411793, -5.544562201104752 ], [ 105.21691699464121, -5.544573682416222 ], [ 105.216924174308062, -5.544611018807025 ], [ 105.217008741398658, -5.544616732269429 ], [ 105.217070391998277, -5.544666974180785 ], [ 105.217261741704476, -5.544679828559766 ], [ 105.217355065359627, -5.544716721702579 ] ] ] } }
]
}
